{"type": "FeatureCollection", "features": [ {"type": "Feature", "properties": {"norad_id": 66768, "name": "TRANSPORTER-15DG", "group": "last-30-days", "lat": 54.992688611604116, "lon": -95.95043949019977, "alt_km": 504.0005069440231, "timestamp": "2025-12-27T18:38:02.203855+00:00", "meta": {"OBJECT_NAME": "TRANSPORTER-15DG", "OBJECT_ID": "2025-276DG", "EPOCH": "2025-12-27T11:45:47.746944", "MEAN_MOTION": 15.18600129, "ECCENTRICITY": 0.0002051, "INCLINATION": 97.4349, "RA_OF_ASC_NODE": 73.0225, "ARG_OF_PERICENTER": 73.0432, "MEAN_ANOMALY": 287.1027, "EPHEMERIS_TYPE": 0, "CLASSIFICATION_TYPE": "U", "NORAD_CAT_ID": 66768, "ELEMENT_SET_NO": 999, "REV_AT_EPOCH": 436, "BSTAR": 0.00062747, "MEAN_MOTION_DOT": 0.00012925, "MEAN_MOTION_DDOT": 0}, "tle": {"line1": "1 66768U 25276DG  25361.49013596  .00012925  00000+0  62747-3 0  9996", "line2": "2 66768  97.4349  73.0225 0002051  73.0432 287.1027 15.18600129  4360"}}, "geometry": {"type": "Point", "coordinates": [-95.95043949019977, 54.992688611604116]}}, {"type": "Feature", "properties": {"norad_id": 66769, "name": "TRANSPORTER-15DH", "group": "last-30-days", "lat": 61.856500156879115, "lon": -92.53511439476958, "alt_km": 502.69844022084635, "timestamp": "2025-12-27T18:38:02.203865+00:00", "meta": {"OBJECT_NAME": "TRANSPORTER-15DH", "OBJECT_ID": "2025-276DH", "EPOCH": "2025-12-27T11:47:37.383360", "MEAN_MOTION": 15.18462487, "ECCENTRICITY": 0.0002729, "INCLINATION": 97.4411, "RA_OF_ASC_NODE": 73.0423, "ARG_OF_PERICENTER": 99.7883, "MEAN_ANOMALY": 260.366, "EPHEMERIS_TYPE": 0, "CLASSIFICATION_TYPE": "U", "NORAD_CAT_ID": 66769, "ELEMENT_SET_NO": 999, "REV_AT_EPOCH": 436, "BSTAR": 0.00035024, "MEAN_MOTION_DOT": 7.151e-05, "MEAN_MOTION_DDOT": 0}, "tle": {"line1": "1 66769U 25276DH  25361.49140490  .00007151  00000+0  35024-3 0  9994", "line2": "2 66769  97.4411  73.0423 0002729  99.7883 260.3660 15.18462487  4367"}}, "geometry": {"type": "Point", "coordinates": [-92.53511439476958, 61.856500156879115]}}, {"type": "Feature", "properties": {"norad_id": 66770, "name": "TRANSPORTER-15DJ", "group": "last-30-days", "lat": 60.605143676451426, "lon": -93.24421354280902, "alt_km": 502.396229122578, "timestamp": "2025-12-27T18:38:02.203876+00:00", "meta": {"OBJECT_NAME": "TRANSPORTER-15DJ", "OBJECT_ID": "2025-276DJ", "EPOCH": "2025-12-27T08:37:28.830144", "MEAN_MOTION": 15.18424516, "ECCENTRICITY": 0.0003391, "INCLINATION": 97.4443, "RA_OF_ASC_NODE": 72.9245, "ARG_OF_PERICENTER": 114.4984, "MEAN_ANOMALY": 245.6604, "EPHEMERIS_TYPE": 0, "CLASSIFICATION_TYPE": "U", "NORAD_CAT_ID": 66770, "ELEMENT_SET_NO": 999, "REV_AT_EPOCH": 434, "BSTAR": 0.00048371, "MEAN_MOTION_DOT": 9.895e-05, "MEAN_MOTION_DDOT": 0}, "tle": {"line1": "1 66770U 25276DJ  25361.35936146  .00009895  00000+0  48371-3 0  9998", "line2": "2 66770  97.4443  72.9245 0003391 114.4984 245.6604 15.18424516  4340"}}, "geometry": {"type": "Point", "coordinates": [-93.24421354280902, 60.605143676451426]}}, {"type": "Feature", "properties": {"norad_id": 66771, "name": "TRANSPORTER-15DK", "group": "last-30-days", "lat": 56.75178448386358, "lon": -95.1626316613052, "alt_km": 502.84337963262715, "timestamp": "2025-12-27T18:38:02.203889+00:00", "meta": {"OBJECT_NAME": "TRANSPORTER-15DK", "OBJECT_ID": "2025-276DK", "EPOCH": "2025-12-27T11:46:15.234240", "MEAN_MOTION": 15.18530645, "ECCENTRICITY": 0.0003061, "INCLINATION": 97.4435, "RA_OF_ASC_NODE": 73.0525, "ARG_OF_PERICENTER": 106.2071, "MEAN_ANOMALY": 253.95, "EPHEMERIS_TYPE": 0, "CLASSIFICATION_TYPE": "U", "NORAD_CAT_ID": 66771, "ELEMENT_SET_NO": 999, "REV_AT_EPOCH": 436, "BSTAR": 0.00058711, "MEAN_MOTION_DOT": 0.00012065, "MEAN_MOTION_DDOT": 0}, "tle": {"line1": "1 66771U 25276DK  25361.49045410  .00012065  00000+0  58711-3 0  9991", "line2": "2 66771  97.4435  73.0525 0003061 106.2071 253.9500 15.18530645  4365"}}, "geometry": {"type": "Point", "coordinates": [-95.1626316613052, 56.75178448386358]}}, {"type": "Feature", "properties": {"norad_id": 66772, "name": "TRANSPORTER-15DL", "group": "last-30-days", "lat": 40.37145509120538, "lon": -100.2812001212493, "alt_km": 505.0979202239696, "timestamp": "2025-12-27T18:38:02.203898+00:00", "meta": {"OBJECT_NAME": "TRANSPORTER-15DL", "OBJECT_ID": "2025-276DL", "EPOCH": "2025-12-27T11:41:55.381920", "MEAN_MOTION": 15.18765557, "ECCENTRICITY": 0.0002924, "INCLINATION": 97.4428, "RA_OF_ASC_NODE": 73.0529, "ARG_OF_PERICENTER": 92.3383, "MEAN_ANOMALY": 267.8186, "EPHEMERIS_TYPE": 0, "CLASSIFICATION_TYPE": "U", "NORAD_CAT_ID": 66772, "ELEMENT_SET_NO": 999, "REV_AT_EPOCH": 436, "BSTAR": 0.00058903, "MEAN_MOTION_DOT": 0.00012187, "MEAN_MOTION_DDOT": 0}, "tle": {"line1": "1 66772U 25276DL  25361.48744655  .00012187  00000+0  58903-3 0  9996", "line2": "2 66772  97.4428  73.0529 0002924  92.3383 267.8186 15.18765557  4366"}}, "geometry": {"type": "Point", "coordinates": [-100.2812001212493, 40.37145509120538]}}, {"type": "Feature", "properties": {"norad_id": 66773, "name": "TRANSPORTER-15DM", "group": "last-30-days", "lat": 49.681361945986566, "lon": -97.80683912833271, "alt_km": 503.89580912368547, "timestamp": "2025-12-27T18:38:02.203908+00:00", "meta": {"OBJECT_NAME": "TRANSPORTER-15DM", "OBJECT_ID": "2025-276DM", "EPOCH": "2025-12-27T10:09:28.850112", "MEAN_MOTION": 15.18584262, "ECCENTRICITY": 0.000315, "INCLINATION": 97.4423, "RA_OF_ASC_NODE": 72.9846, "ARG_OF_PERICENTER": 93.5055, "MEAN_ANOMALY": 266.654, "EPHEMERIS_TYPE": 0, "CLASSIFICATION_TYPE": "U", "NORAD_CAT_ID": 66773, "ELEMENT_SET_NO": 999, "REV_AT_EPOCH": 435, "BSTAR": 0.00058467, "MEAN_MOTION_DOT": 0.00012033, "MEAN_MOTION_DDOT": 0}, "tle": {"line1": "1 66773U 25276DM  25361.42325058  .00012033  00000+0  58467-3 0  9998", "line2": "2 66773  97.4423  72.9846 0003150  93.5055 266.6540 15.18584262  4355"}}, "geometry": {"type": "Point", "coordinates": [-97.80683912833271, 49.681361945986566]}}, {"type": "Feature", "properties": {"norad_id": 66774, "name": "TRANSPORTER-15DN", "group": "last-30-days", "lat": 45.936868276992236, "lon": -98.910169218888, "alt_km": 504.4426401114897, "timestamp": "2025-12-27T18:38:02.203920+00:00", "meta": {"OBJECT_NAME": "TRANSPORTER-15DN", "OBJECT_ID": "2025-276DN", "EPOCH": "2025-12-27T11:43:22.848960", "MEAN_MOTION": 15.18654282, "ECCENTRICITY": 0.0003013, "INCLINATION": 97.441, "RA_OF_ASC_NODE": 73.0454, "ARG_OF_PERICENTER": 91.022, "MEAN_ANOMALY": 269.1359, "EPHEMERIS_TYPE": 0, "CLASSIFICATION_TYPE": "U", "NORAD_CAT_ID": 66774, "ELEMENT_SET_NO": 999, "REV_AT_EPOCH": 436, "BSTAR": 0.00057567, "MEAN_MOTION_DOT": 0.0001187, "MEAN_MOTION_DDOT": 0}, "tle": {"line1": "1 66774U 25276DN  25361.48845890  .00011870  00000+0  57567-3 0  9994", "line2": "2 66774  97.4410  73.0454 0003013  91.0220 269.1359 15.18654282  4361"}}, "geometry": {"type": "Point", "coordinates": [-98.910169218888, 45.936868276992236]}}, {"type": "Feature", "properties": {"norad_id": 66775, "name": "PHI 1", "group": "last-30-days", "lat": 40.67510586182426, "lon": -100.25286515864254, "alt_km": 506.2072830027255, "timestamp": "2025-12-27T18:38:02.203931+00:00", "meta": {"OBJECT_NAME": "PHI 1", "OBJECT_ID": "2025-276DP", "EPOCH": "2025-12-27T11:41:59.334720", "MEAN_MOTION": 15.18715732, "ECCENTRICITY": 0.0002502, "INCLINATION": 97.4334, "RA_OF_ASC_NODE": 73.0208, "ARG_OF_PERICENTER": 61.4244, "MEAN_ANOMALY": 298.7242, "EPHEMERIS_TYPE": 0, "CLASSIFICATION_TYPE": "U", "NORAD_CAT_ID": 66775, "ELEMENT_SET_NO": 999, "REV_AT_EPOCH": 436, "BSTAR": 0.00064524, "MEAN_MOTION_DOT": 0.00013339, "MEAN_MOTION_DDOT": 0}, "tle": {"line1": "1 66775U 25276DP  25361.48749230  .00013339  00000+0  64524-3 0  9999", "line2": "2 66775  97.4334  73.0208 0002502  61.4244 298.7242 15.18715732  4360"}}, "geometry": {"type": "Point", "coordinates": [-100.25286515864254, 40.67510586182426]}}, {"type": "Feature", "properties": {"norad_id": 66776, "name": "TRANSPORTER-15DQ", "group": "last-30-days", "lat": 37.849804016136595, "lon": -100.85413705727582, "alt_km": 506.0885661917355, "timestamp": "2025-12-27T18:38:02.203942+00:00", "meta": {"OBJECT_NAME": "TRANSPORTER-15DQ", "OBJECT_ID": "2025-276DQ", "EPOCH": "2025-12-27T10:06:22.643424", "MEAN_MOTION": 15.18769413, "ECCENTRICITY": 0.0002765, "INCLINATION": 97.4374, "RA_OF_ASC_NODE": 72.9701, "ARG_OF_PERICENTER": 75.895, "MEAN_ANOMALY": 284.2591, "EPHEMERIS_TYPE": 0, "CLASSIFICATION_TYPE": "U", "NORAD_CAT_ID": 66776, "ELEMENT_SET_NO": 999, "REV_AT_EPOCH": 435, "BSTAR": 0.00049315, "MEAN_MOTION_DOT": 0.00010191, "MEAN_MOTION_DDOT": 0}, "tle": {"line1": "1 66776U 25276DQ  25361.42109541  .00010191  00000+0  49315-3 0  9993", "line2": "2 66776  97.4374  72.9701 0002765  75.8950 284.2591 15.18769413  4356"}}, "geometry": {"type": "Point", "coordinates": [-100.85413705727582, 37.849804016136595]}}, {"type": "Feature", "properties": {"norad_id": 66777, "name": "TRANSPORTER-15DR", "group": "last-30-days", "lat": 21.123234720183472, "lon": -103.74550711513449, "alt_km": 507.4213933221963, "timestamp": "2025-12-27T18:38:02.203952+00:00", "meta": {"OBJECT_NAME": "TRANSPORTER-15DR", "OBJECT_ID": "2025-276DR", "EPOCH": "2025-12-27T11:36:52.492896", "MEAN_MOTION": 15.19032349, "ECCENTRICITY": 0.0003515, "INCLINATION": 97.4462, "RA_OF_ASC_NODE": 73.07, "ARG_OF_PERICENTER": 101.8817, "MEAN_ANOMALY": 258.2812, "EPHEMERIS_TYPE": 0, "CLASSIFICATION_TYPE": "U", "NORAD_CAT_ID": 66777, "ELEMENT_SET_NO": 999, "REV_AT_EPOCH": 436, "BSTAR": 0.00069221, "MEAN_MOTION_DOT": 0.00014449, "MEAN_MOTION_DDOT": 0}, "tle": {"line1": "1 66777U 25276DR  25361.48394089  .00014449  00000+0  69221-3 0  9991", "line2": "2 66777  97.4462  73.0700 0003515 101.8817 258.2812 15.19032349  4362"}}, "geometry": {"type": "Point", "coordinates": [-103.74550711513449, 21.123234720183472]}}]}